{
  "type": "FeatureCollection",
  "features": [
    {
      "type": "Feature",
      "properties": {
        "norad_id": 59626,
        "name": "LEGION 2",
        "group": "resource",
        "lat": 35.68087057109774,
        "lon": -115.32959801895856,
        "alt_km": 517.9500634688602,
        "timestamp": "2025-12-10T11:33:53.049291+00:00",
        "meta_object_name": "LEGION 2",
        "meta_object_id": "2024-081B",
        "meta_epoch": "2025-12-10T04:35:50.906688",
        "meta_mean_motion": 15.16450576,
        "meta_eccentricity": 0.0005794,
        "meta_inclination": 97.5213,
        "meta_ra_of_asc_node": 58.9386,
        "meta_arg_of_pericenter": 304.6638,
        "meta_mean_anomaly": 55.4048,
        "meta_ephemeris_type": 0,
        "meta_classification_type": "U",
        "meta_norad_cat_id": 59626,
        "meta_element_set_no": 999,
        "meta_rev_at_epoch": 8889,
        "meta_bstar": 0.00034996,
        "meta_mean_motion_dot": 6.744e-05,
        "meta_mean_motion_ddot": 0,
        "tle_line1": "1 59626U 24081B   25344.19156142  .00006744  00000+0  34996-3 0  9994",
        "tle_line2": "2 59626  97.5213  58.9386 0005794 304.6638  55.4048 15.16450576 88890"
      },
      "geometry": {
        "type": "Point",
        "coordinates": [
          -115.32959801895856,
          35.68087057109774
        ]
      }
    },
    {
      "type": "Feature",
      "properties": {
        "norad_id": 60182,
        "name": "ALOS-4 (DAICHI-4)",
        "group": "resource",
        "lat": 76.19920158978073,
        "lon": -66.10374757621808,
        "alt_km": 622.7654403233664,
        "timestamp": "2025-12-10T11:33:53.049302+00:00",
        "meta_object_name": "ALOS-4 (DAICHI-4)",
        "meta_object_id": "2024-123A",
        "meta_epoch": "2025-12-10T04:36:56.937024",
        "meta_mean_motion": 14.7947331,
        "meta_eccentricity": 0.0001445,
        "meta_inclination": 97.9225,
        "meta_ra_of_asc_node": 79.0757,
        "meta_arg_of_pericenter": 101.5606,
        "meta_mean_anomaly": 258.5768,
        "meta_ephemeris_type": 0,
        "meta_classification_type": "U",
        "meta_norad_cat_id": 60182,
        "meta_element_set_no": 999,
        "meta_rev_at_epoch": 7793,
        "meta_bstar": 0.00035532,
        "meta_mean_motion_dot": 2.603e-05,
        "meta_mean_motion_ddot": 0,
        "tle_line1": "1 60182U 24123A   25344.19232566  .00002603  00000+0  35532-3 0  9992",
        "tle_line2": "2 60182  97.9225  79.0757 0001445 101.5606 258.5768 14.79473310 77937"
      },
      "geometry": {
        "type": "Point",
        "coordinates": [
          -66.10374757621808,
          76.19920158978073
        ]
      }
    },
    {
      "type": "Feature",
      "properties": {
        "norad_id": 60452,
        "name": "LEGION 3",
        "group": "resource",
        "lat": 1.701178758511955,
        "lon": 140.53290816806935,
        "alt_km": 508.6158269388652,
        "timestamp": "2025-12-10T11:33:53.049313+00:00",
        "meta_object_name": "LEGION 3",
        "meta_object_id": "2024-146A",
        "meta_epoch": "2025-12-10T02:52:34.440384",
        "meta_mean_motion": 15.15717226,
        "meta_eccentricity": 0.0014603,
        "meta_inclination": 45.0024,
        "meta_ra_of_asc_node": 324.1774,
        "meta_arg_of_pericenter": 184.5309,
        "meta_mean_anomaly": 175.5439,
        "meta_ephemeris_type": 0,
        "meta_classification_type": "U",
        "meta_norad_cat_id": 60452,
        "meta_element_set_no": 999,
        "meta_rev_at_epoch": 7333,
        "meta_bstar": 0.00039557,
        "meta_mean_motion_dot": 7.426e-05,
        "meta_mean_motion_ddot": 0,
        "tle_line1": "1 60452U 24146A   25344.11984306  .00007426  00000+0  39557-3 0  9994",
        "tle_line2": "2 60452  45.0024 324.1774 0014603 184.5309 175.5439 15.15717226 73333"
      },
      "geometry": {
        "type": "Point",
        "coordinates": [
          140.53290816806935,
          1.701178758511955
        ]
      }
    },
    {
      "type": "Feature",
      "properties": {
        "norad_id": 60453,
        "name": "LEGION 4",
        "group": "resource",
        "lat": 4.354130151239972,
        "lon": -130.3840266590991,
        "alt_km": 521.9249022631138,
        "timestamp": "2025-12-10T11:33:53.049324+00:00",
        "meta_object_name": "LEGION 4",
        "meta_object_id": "2024-146B",
        "meta_epoch": "2025-12-10T04:28:26.802912",
        "meta_mean_motion": 15.15781146,
        "meta_eccentricity": 0.0009714,
        "meta_inclination": 45.0385,
        "meta_ra_of_asc_node": 55.5635,
        "meta_arg_of_pericenter": 297.8773,
        "meta_mean_anomaly": 62.1122,
        "meta_ephemeris_type": 0,
        "meta_classification_type": "U",
        "meta_norad_cat_id": 60453,
        "meta_element_set_no": 999,
        "meta_rev_at_epoch": 7219,
        "meta_bstar": 0.00039605,
        "meta_mean_motion_dot": 7.439e-05,
        "meta_mean_motion_ddot": 0,
        "tle_line1": "1 60453U 24146B   25344.18642133  .00007439  00000+0  39605-3 0  9999",
        "tle_line2": "2 60453  45.0385  55.5635 0009714 297.8773  62.1122 15.15781146 72190"
      },
      "geometry": {
        "type": "Point",
        "coordinates": [
          -130.3840266590991,
          4.354130151239972
        ]
      }
    },
    {
      "type": "Feature",
      "properties": {
        "norad_id": 60989,
        "name": "SENTINEL-2C",
        "group": "resource",
        "lat": -76.87535066125494,
        "lon": -163.2910510311021,
        "alt_km": 797.140802467532,
        "timestamp": "2025-12-10T11:33:53.049336+00:00",
        "meta_object_name": "SENTINEL-2C",
        "meta_object_id": "2024-157A",
        "meta_epoch": "2025-12-10T03:38:23.778240",
        "meta_mean_motion": 14.30815927,
        "meta_eccentricity": 0.0001201,
        "meta_inclination": 98.5684,
        "meta_ra_of_asc_node": 56.6715,
        "meta_arg_of_pericenter": 98.0371,
        "meta_mean_anomaly": 262.0948,
        "meta_ephemeris_type": 0,
        "meta_classification_type": "U",
        "meta_norad_cat_id": 60989,
        "meta_element_set_no": 999,
        "meta_rev_at_epoch": 6595,
        "meta_bstar": 0.00010601,
        "meta_mean_motion_dot": 2.34e-06,
        "meta_mean_motion_ddot": 0,
        "tle_line1": "1 60989U 24157A   25344.15166410  .00000234  00000+0  10601-3 0  9992",
        "tle_line2": "2 60989  98.5684  56.6715 0001201  98.0371 262.0948 14.30815927 65952"
      },
      "geometry": {
        "type": "Point",
        "coordinates": [
          -163.2910510311021,
          -76.87535066125494
        ]
      }
    },
    {
      "type": "Feature",
      "properties": {
        "norad_id": 61735,
        "name": "IONOSFERA-M 1",
        "group": "resource",
        "lat": -51.34033926861885,
        "lon": 23.25906612008517,
        "alt_km": 823.778008580277,
        "timestamp": "2025-12-10T11:33:53.049346+00:00",
        "meta_object_name": "IONOSFERA-M 1",
        "meta_object_id": "2024-199A",
        "meta_epoch": "2025-12-10T03:43:31.933344",
        "meta_mean_motion": 14.22713167,
        "meta_eccentricity": 0.0001081,
        "meta_inclination": 98.7412,
        "meta_ra_of_asc_node": 214.0233,
        "meta_arg_of_pericenter": 25.3742,
        "meta_mean_anomaly": 334.7489,
        "meta_ephemeris_type": 0,
        "meta_classification_type": "U",
        "meta_norad_cat_id": 61735,
        "meta_element_set_no": 999,
        "meta_rev_at_epoch": 10082,
        "meta_bstar": 7.6651e-05,
        "meta_mean_motion_dot": 1.27e-06,
        "meta_mean_motion_ddot": 0,
        "tle_line1": "1 61735U 24199A   25344.15523071  .00000127  00000+0  76651-4 0  9997",
        "tle_line2": "2 61735  98.7412 214.0233 0001081  25.3742 334.7489 14.22713167100826"
      },
      "geometry": {
        "type": "Point",
        "coordinates": [
          23.25906612008517,
          -51.34033926861885
        ]
      }
    },
    {
      "type": "Feature",
      "properties": {
        "norad_id": 61736,
        "name": "IONOSFERA-M 2",
        "group": "resource",
        "lat": 53.75684362558248,
        "lon": -157.85453119902917,
        "alt_km": 810.4813710578055,
        "timestamp": "2025-12-10T11:33:53.049356+00:00",
        "meta_object_name": "IONOSFERA-M 2",
        "meta_object_id": "2024-199B",
        "meta_epoch": "2025-12-10T04:33:25.670016",
        "meta_mean_motion": 14.22715345,
        "meta_eccentricity": 0.0001585,
        "meta_inclination": 98.7403,
        "meta_ra_of_asc_node": 213.9702,
        "meta_arg_of_pericenter": 113.9493,
        "meta_mean_anomaly": 246.1851,
        "meta_ephemeris_type": 0,
        "meta_classification_type": "U",
        "meta_norad_cat_id": 61736,
        "meta_element_set_no": 999,
        "meta_rev_at_epoch": 10395,
        "meta_bstar": 7.2722e-05,
        "meta_mean_motion_dot": 1.19e-06,
        "meta_mean_motion_ddot": 0,
        "tle_line1": "1 61736U 24199B   25344.18988044  .00000119  00000+0  72722-4 0  9992",
        "tle_line2": "2 61736  98.7403 213.9702 0001585 113.9493 246.1851 14.22715345103958"
      },
      "geometry": {
        "type": "Point",
        "coordinates": [
          -157.85453119902917,
          53.75684362558248
        ]
      }
    }
  ]
}